{"type": "FeatureCollection", "features": [ {"type": "Feature", "properties": {"norad_id": 36258, "name": "FENGYUN 1C DEB", "group": "fengyun-1c-debris", "lat": 80.74773365276435, "lon": -68.78616587778565, "alt_km": 517.7064502956191, "timestamp": "2025-12-26T19:22:39.195207+00:00", "meta": {"OBJECT_NAME": "FENGYUN 1C DEB", "OBJECT_ID": "1999-025DWK", "EPOCH": "2025-12-26T07:34:35.539968", "MEAN_MOTION": 14.74917455, "ECCENTRICITY": 0.0173519, "INCLINATION": 99.0855, "RA_OF_ASC_NODE": 31.4506, "ARG_OF_PERICENTER": 83.6369, "MEAN_ANOMALY": 278.4566, "EPHEMERIS_TYPE": 0, "CLASSIFICATION_TYPE": "U", "NORAD_CAT_ID": 36258, "ELEMENT_SET_NO": 999, "REV_AT_EPOCH": 91022, "BSTAR": 0.00031390847, "MEAN_MOTION_DOT": 2.616e-05, "MEAN_MOTION_DDOT": 0}, "tle": {"line1": "1 36258U 99025DWK 25360.31568912  .00002616  00000+0  31391-3 0  9994", "line2": "2 36258  99.0855  31.4506 0173519  83.6369 278.4566 14.74917455910221"}}, "geometry": {"type": "Point", "coordinates": [-68.78616587778565, 80.74773365276435]}}, {"type": "Feature", "properties": {"norad_id": 36260, "name": "FENGYUN 1C DEB", "group": "fengyun-1c-debris", "lat": 65.65762790182937, "lon": -157.72749334360034, "alt_km": 835.4321560790959, "timestamp": "2025-12-26T19:22:39.195217+00:00", "meta": {"OBJECT_NAME": "FENGYUN 1C DEB", "OBJECT_ID": "1999-025DWM", "EPOCH": "2025-12-24T19:20:24.734112", "MEAN_MOTION": 14.15381135, "ECCENTRICITY": 0.00153864, "INCLINATION": 98.6615, "RA_OF_ASC_NODE": 0.6385, "ARG_OF_PERICENTER": 213.0221, "MEAN_ANOMALY": 146.9994, "EPHEMERIS_TYPE": 0, "CLASSIFICATION_TYPE": "U", "NORAD_CAT_ID": 36260, "ELEMENT_SET_NO": 999, "REV_AT_EPOCH": 87979, "BSTAR": 0.00015734209, "MEAN_MOTION_DOT": 2.64e-06, "MEAN_MOTION_DDOT": 0}, "tle": {"line1": "1 36260U 99025DWM 25358.80584183  .00000264  00000+0  15734-3 0  9996", "line2": "2 36260  98.6615   0.6385 0015386 213.0221 146.9994 14.15381135879794"}}, "geometry": {"type": "Point", "coordinates": [-157.72749334360034, 65.65762790182937]}}, {"type": "Feature", "properties": {"norad_id": 36261, "name": "FENGYUN 1C DEB", "group": "fengyun-1c-debris", "lat": -60.63731304282841, "lon": -84.17856368246737, "alt_km": 1157.237483784429, "timestamp": "2025-12-26T19:22:39.195228+00:00", "meta": {"OBJECT_NAME": "FENGYUN 1C DEB", "OBJECT_ID": "1999-025DWN", "EPOCH": "2025-12-24T23:04:08.652864", "MEAN_MOTION": 13.45492576, "ECCENTRICITY": 0.03558493, "INCLINATION": 101.3651, "RA_OF_ASC_NODE": 252.7857, "ARG_OF_PERICENTER": 46.9112, "MEAN_ANOMALY": 316.1219, "EPHEMERIS_TYPE": 0, "CLASSIFICATION_TYPE": "U", "NORAD_CAT_ID": 36261, "ELEMENT_SET_NO": 999, "REV_AT_EPOCH": 84597, "BSTAR": 0.0006499036, "MEAN_MOTION_DOT": 5.11e-06, "MEAN_MOTION_DDOT": 0}, "tle": {"line1": "1 36261U 99025DWN 25358.96121126  .00000511  00000+0  64990-3 0  9991", "line2": "2 36261 101.3651 252.7857 0355849  46.9112 316.1219 13.45492576845972"}}, "geometry": {"type": "Point", "coordinates": [-84.17856368246737, -60.63731304282841]}}, {"type": "Feature", "properties": {"norad_id": 36262, "name": "FENGYUN 1C DEB", "group": "fengyun-1c-debris", "lat": 3.7543184558244835, "lon": 62.2678373385451, "alt_km": 778.5307778737515, "timestamp": "2025-12-26T19:22:39.195238+00:00", "meta": {"OBJECT_NAME": "FENGYUN 1C DEB", "OBJECT_ID": "1999-025DWP", "EPOCH": "2025-12-24T22:49:21.024192", "MEAN_MOTION": 14.27822117, "ECCENTRICITY": 0.0059764, "INCLINATION": 98.9607, "RA_OF_ASC_NODE": 239.7712, "ARG_OF_PERICENTER": 239.4919, "MEAN_ANOMALY": 120.0352, "EPHEMERIS_TYPE": 0, "CLASSIFICATION_TYPE": "U", "NORAD_CAT_ID": 36262, "ELEMENT_SET_NO": 999, "REV_AT_EPOCH": 89671, "BSTAR": 0.00026973, "MEAN_MOTION_DOT": 6.33e-06, "MEAN_MOTION_DDOT": 0}, "tle": {"line1": "1 36262U 99025DWP 25358.95093778  .00000633  00000+0  26973-3 0  9996", "line2": "2 36262  98.9607 239.7712 0059764 239.4919 120.0352 14.27822117896718"}}, "geometry": {"type": "Point", "coordinates": [62.2678373385451, 3.7543184558244835]}}, {"type": "Feature", "properties": {"norad_id": 36263, "name": "FENGYUN 1C DEB", "group": "fengyun-1c-debris", "lat": 6.7286187737925545, "lon": 63.77798494459266, "alt_km": 724.7569285133504, "timestamp": "2025-12-26T19:22:39.195250+00:00", "meta": {"OBJECT_NAME": "FENGYUN 1C DEB", "OBJECT_ID": "1999-025DWQ", "EPOCH": "2025-12-24T21:43:53.936832", "MEAN_MOTION": 14.45786448, "ECCENTRICITY": 0.0035498, "INCLINATION": 98.9986, "RA_OF_ASC_NODE": 240.6907, "ARG_OF_PERICENTER": 227.7393, "MEAN_ANOMALY": 132.0784, "EPHEMERIS_TYPE": 0, "CLASSIFICATION_TYPE": "U", "NORAD_CAT_ID": 36263, "ELEMENT_SET_NO": 999, "REV_AT_EPOCH": 88161, "BSTAR": 0.0018996, "MEAN_MOTION_DOT": 6.745e-05, "MEAN_MOTION_DDOT": 0}, "tle": {"line1": "1 36263U 99025DWQ 25358.90548538  .00006745  00000+0  18996-2 0  9996", "line2": "2 36263  98.9986 240.6907 0035498 227.7393 132.0784 14.45786448881611"}}, "geometry": {"type": "Point", "coordinates": [63.77798494459266, 6.7286187737925545]}}, {"type": "Feature", "properties": {"norad_id": 36267, "name": "FENGYUN 1C DEB", "group": "fengyun-1c-debris", "lat": -19.335444487588894, "lon": -49.46941106782014, "alt_km": 957.5785987594818, "timestamp": "2025-12-26T19:22:39.195262+00:00", "meta": {"OBJECT_NAME": "FENGYUN 1C DEB", "OBJECT_ID": "1999-025DWU", "EPOCH": "2025-12-24T08:32:51.428256", "MEAN_MOTION": 14.09131706, "ECCENTRICITY": 0.01263202, "INCLINATION": 98.5603, "RA_OF_ASC_NODE": 305.1713, "ARG_OF_PERICENTER": 176.9466, "MEAN_ANOMALY": 335.4349, "EPHEMERIS_TYPE": 0, "CLASSIFICATION_TYPE": "U", "NORAD_CAT_ID": 36267, "ELEMENT_SET_NO": 999, "REV_AT_EPOCH": 86693, "BSTAR": 0.00070779992, "MEAN_MOTION_DOT": 1.282e-05, "MEAN_MOTION_DDOT": 0}, "tle": {"line1": "1 36267U 99025DWU 25358.35615079  .00001282  00000+0  70780-3 0  9995", "line2": "2 36267  98.5603 305.1713 0126320 176.9466 335.4349 14.09131706866935"}}, "geometry": {"type": "Point", "coordinates": [-49.46941106782014, -19.335444487588894]}}, {"type": "Feature", "properties": {"norad_id": 36269, "name": "FENGYUN 1C DEB", "group": "fengyun-1c-debris", "lat": -74.02761395289126, "lon": -22.55543727528767, "alt_km": 686.4000044783188, "timestamp": "2025-12-26T19:22:39.195272+00:00", "meta": {"OBJECT_NAME": "FENGYUN 1C DEB", "OBJECT_ID": "1999-025DWW", "EPOCH": "2025-12-14T01:28:51.707712", "MEAN_MOTION": 14.27043075, "ECCENTRICITY": 0.02331074, "INCLINATION": 99.1079, "RA_OF_ASC_NODE": 290.0784, "ARG_OF_PERICENTER": 275.9651, "MEAN_ANOMALY": 81.5008, "EPHEMERIS_TYPE": 0, "CLASSIFICATION_TYPE": "U", "NORAD_CAT_ID": 36269, "ELEMENT_SET_NO": 999, "REV_AT_EPOCH": 87735, "BSTAR": 0.00079666975, "MEAN_MOTION_DOT": 2.532e-05, "MEAN_MOTION_DDOT": 0}, "tle": {"line1": "1 36269U 99025DWW 25348.06170958  .00002532  00000+0  79667-3 0  9998", "line2": "2 36269  99.1079 290.0784 0233107 275.9651  81.5008 14.27043075877359"}}, "geometry": {"type": "Point", "coordinates": [-22.55543727528767, -74.02761395289126]}}, {"type": "Feature", "properties": {"norad_id": 36272, "name": "FENGYUN 1C DEB", "group": "fengyun-1c-debris", "lat": -50.548846679914, "lon": 46.2107378115128, "alt_km": 720.4686517077325, "timestamp": "2025-12-26T19:22:39.195284+00:00", "meta": {"OBJECT_NAME": "FENGYUN 1C DEB", "OBJECT_ID": "1999-025DWZ", "EPOCH": "2025-12-15T09:29:34.780416", "MEAN_MOTION": 14.17259115, "ECCENTRICITY": 0.01679127, "INCLINATION": 99.1362, "RA_OF_ASC_NODE": 225.7589, "ARG_OF_PERICENTER": 260.5869, "MEAN_ANOMALY": 97.6289, "EPHEMERIS_TYPE": 0, "CLASSIFICATION_TYPE": "U", "NORAD_CAT_ID": 36272, "ELEMENT_SET_NO": 999, "REV_AT_EPOCH": 63654, "BSTAR": 0.00052291356, "MEAN_MOTION_DOT": 1.164e-05, "MEAN_MOTION_DDOT": 0}, "tle": {"line1": "1 36272U 99025DWZ 25349.39554144  .00001164  00000+0  52291-3 0  9996", "line2": "2 36272  99.1362 225.7589 0167912 260.5869  97.6289 14.17259115636543"}}, "geometry": {"type": "Point", "coordinates": [46.2107378115128, -50.548846679914]}}, {"type": "Feature", "properties": {"norad_id": 36273, "name": "FENGYUN 1C DEB", "group": "fengyun-1c-debris", "lat": -0.2329646034242393, "lon": 51.32262080421534, "alt_km": 883.5830264055921, "timestamp": "2025-12-26T19:22:39.195294+00:00", "meta": {"OBJECT_NAME": "FENGYUN 1C DEB", "OBJECT_ID": "1999-025DXA", "EPOCH": "2025-12-10T21:07:00.418080", "MEAN_MOTION": 14.16564043, "ECCENTRICITY": 0.0096501, "INCLINATION": 99.6045, "RA_OF_ASC_NODE": 214.1863, "ARG_OF_PERICENTER": 353.8475, "MEAN_ANOMALY": 6.1504, "EPHEMERIS_TYPE": 0, "CLASSIFICATION_TYPE": "U", "NORAD_CAT_ID": 36273, "ELEMENT_SET_NO": 999, "REV_AT_EPOCH": 66207, "BSTAR": 0.00042955, "MEAN_MOTION_DOT": 8.45e-06, "MEAN_MOTION_DDOT": 0}, "tle": {"line1": "1 36273U 99025DXA 25344.87986595  .00000845  00000+0  42955-3 0  9995", "line2": "2 36273  99.6045 214.1863 0096501 353.8475   6.1504 14.16564043662078"}}, "geometry": {"type": "Point", "coordinates": [51.32262080421534, -0.2329646034242393]}}, {"type": "Feature", "properties": {"norad_id": 36274, "name": "FENGYUN 1C DEB", "group": "fengyun-1c-debris", "lat": -7.5774423157469, "lon": -105.71878396117792, "alt_km": 771.5619243181673, "timestamp": "2025-12-26T19:22:39.195304+00:00", "meta": {"OBJECT_NAME": "FENGYUN 1C DEB", "OBJECT_ID": "1999-025DXB", "EPOCH": "2025-12-24T23:29:20.675328", "MEAN_MOTION": 14.23624847, "ECCENTRICITY": 0.00631497, "INCLINATION": 99.1381, "RA_OF_ASC_NODE": 73.6094, "ARG_OF_PERICENTER": 196.6447, "MEAN_ANOMALY": 343.9967, "EPHEMERIS_TYPE": 0, "CLASSIFICATION_TYPE": "U", "NORAD_CAT_ID": 36274, "ELEMENT_SET_NO": 999, "REV_AT_EPOCH": 63159, "BSTAR": 0.0030627834, "MEAN_MOTION_DOT": 7.085e-05, "MEAN_MOTION_DDOT": 0}, "tle": {"line1": "1 36274U 99025DXB 25358.97871152  .00007085  00000+0  30628-2 0  9990", "line2": "2 36274  99.1381  73.6094 0063149 196.6447 343.9967 14.23624847631590"}}, "geometry": {"type": "Point", "coordinates": [-105.71878396117792, -7.5774423157469]}}]}